{
  "type": "FeatureCollection",
  "features": [
    {
      "type": "Feature",
      "properties": {
        "norad_id": 54741,
        "name": "GALAXY 35 (G-35)",
        "group": "intelsat",
        "lat": 0.02612151180602359,
        "lon": 48.96713720845443,
        "alt_km": 35794.32631440221,
        "timestamp": "2025-12-14T03:55:52.461226+00:00",
        "meta_object_name": "GALAXY 35 (G-35)",
        "meta_object_id": "2022-170A",
        "meta_epoch": "2025-12-13T04:26:46.019904",
        "meta_mean_motion": 1.00271192,
        "meta_eccentricity": 0.00024437,
        "meta_inclination": 0.015,
        "meta_ra_of_asc_node": 285.7451,
        "meta_arg_of_pericenter": 342.2776,
        "meta_mean_anomaly": 147.6965,
        "meta_ephemeris_type": 0,
        "meta_classification_type": "U",
        "meta_norad_cat_id": 54741,
        "meta_element_set_no": 999,
        "meta_rev_at_epoch": 1102,
        "meta_bstar": 0,
        "meta_mean_motion_dot": -1.49e-06,
        "meta_mean_motion_ddot": 0,
        "tle_line1": "1 54741U 22170A   25347.18525486 -.00000149  00000+0  00000+0 0  9996",
        "tle_line2": "2 54741   0.0150 285.7451 0002443 342.2776 147.6965  1.00271192 11020"
      },
      "geometry": {
        "type": "Point",
        "coordinates": [
          48.96713720845443,
          0.02612151180602359
        ]
      }
    },
    {
      "type": "Feature",
      "properties": {
        "norad_id": 54742,
        "name": "GALAXY 36 (G-36)",
        "group": "intelsat",
        "lat": 0.004805979979123111,
        "lon": 53.05429379120864,
        "alt_km": 35786.609584989084,
        "timestamp": "2025-12-14T03:55:52.461237+00:00",
        "meta_object_name": "GALAXY 36 (G-36)",
        "meta_object_id": "2022-170B",
        "meta_epoch": "2025-12-13T04:28:00.901056",
        "meta_mean_motion": 1.0027219,
        "meta_eccentricity": 3.598e-05,
        "meta_inclination": 0.0372,
        "meta_ra_of_asc_node": 135.2399,
        "meta_arg_of_pericenter": 165.2612,
        "meta_mean_anomaly": 119.6285,
        "meta_ephemeris_type": 0,
        "meta_classification_type": "U",
        "meta_norad_cat_id": 54742,
        "meta_element_set_no": 999,
        "meta_rev_at_epoch": 1090,
        "meta_bstar": 0,
        "meta_mean_motion_dot": -1.72e-06,
        "meta_mean_motion_ddot": 0,
        "tle_line1": "1 54742U 22170B   25347.18612154 -.00000172  00000+0  00000+0 0  9992",
        "tle_line2": "2 54742   0.0372 135.2399 0000359 165.2612 119.6285  1.00272190 10902"
      },
      "geometry": {
        "type": "Point",
        "coordinates": [
          53.05429379120864,
          0.004805979979123111
        ]
      }
    },
    {
      "type": "Feature",
      "properties": {
        "norad_id": 57493,
        "name": "GALAXY 37 (G-37)",
        "group": "intelsat",
        "lat": 0.002249187677459898,
        "lon": 15.071669361151933,
        "alt_km": 35788.738320842764,
        "timestamp": "2025-12-14T03:55:52.461249+00:00",
        "meta_object_name": "GALAXY 37 (G-37)",
        "meta_object_id": "2023-112A",
        "meta_epoch": "2025-12-13T05:27:57.429792",
        "meta_mean_motion": 1.00271962,
        "meta_eccentricity": 0.00021151,
        "meta_inclination": 0.016,
        "meta_ra_of_asc_node": 39.1656,
        "meta_arg_of_pericenter": 227.907,
        "meta_mean_anomaly": 130.0817,
        "meta_ephemeris_type": 0,
        "meta_classification_type": "U",
        "meta_norad_cat_id": 57493,
        "meta_element_set_no": 999,
        "meta_rev_at_epoch": 867,
        "meta_bstar": 0,
        "meta_mean_motion_dot": 6.2e-07,
        "meta_mean_motion_ddot": 0,
        "tle_line1": "1 57493U 23112A   25347.22774803  .00000062  00000+0  00000+0 0  9997",
        "tle_line2": "2 57493   0.0160  39.1656 0002115 227.9070 130.0817  1.00271962  8672"
      },
      "geometry": {
        "type": "Point",
        "coordinates": [
          15.071669361151933,
          0.002249187677459898
        ]
      }
    }
  ]
}